STARLINK-3614           
1 51771U 22017D   22075.16667824  .00029959  00000+0  21746-3 0  9995
2 51771  53.2185  51.9414 0001463  49.1729 130.9469 15.73162160  4140
STARLINK-3623           
1 51772U 22017E   22075.16667824 -.00077260  00000+0 -55095-3 0  9990
2 51772  53.2186  51.9369 0001395  49.8941 132.1798 15.73207122  4190
STARLINK-3624           
1 51773U 22017F   22074.91667824  .00148422  00000+0  10534-2 0  9998
2 51773  53.2182  53.1748 0001152  59.9413 144.2471 15.72975527  4113
STARLINK-3629           
1 51774U 22017G   22074.91667824  .00156432  00000+0  11076-2 0  9991
2 51774  53.2186  53.1698 0001405  70.1602 136.5867 15.73003943  4116
STARLINK-3620           
1 51775U 22017H   22074.91667824  .00189396  00000+0  13356-2 0  9990
2 51775  53.2182  53.1734 0001331  72.3015 132.4901 15.72989812  4104
STARLINK-3608           
1 51776U 22017J   22075.16667824  .00031716  00000+0  23023-3 0  9994
2 51776  53.2199  51.9335 0001554  47.1024 137.1012 15.73129495  4146
STARLINK-3625           
1 51777U 22017K   22074.91667824  .00248205  00000+0  17391-2 0  9990
2 51777  53.2187  53.1707 0001290  63.9250 142.1652 15.72956708  4112
STARLINK-3615           
1 51778U 22017L   22075.16667824  .00043292  00000+0  31220-3 0  9996
2 51778  53.2214  51.5845 0001640  63.5881 292.5614 15.73131068  4162
STARLINK-3611           
1 51779U 22017M   22074.91667824  .00136334  00000+0  97027-3 0  9996
2 51779  53.2185  53.1671 0001376  55.4371 152.4499 15.72953532  4101
STARLINK-3617           
1 51780U 22017N   22075.16667824 -.00066248  00000+0 -47093-3 0  9992
2 51780  53.2191  51.9270 0001102  54.5151 132.6788 15.73220110  4194
STARLINK-3580           
1 51781U 22017P   22075.16667824 -.00061193  00000+0 -43420-3 0  9997
2 51781  53.2186  51.9301 0001356  56.5811 128.8351 15.73229945  4154
STARLINK-3616           
1 51782U 22017Q   22074.91667824  .00191124  00000+0  13479-2 0  9996
2 51782  53.2192  53.1586 0001117  64.0880 148.4023 15.72982259  4108
STARLINK-3628           
1 51783U 22017R   22074.91667824  .00237475  00000+0  16690-2 0  9995
2 51783  53.2187  53.1634 0001335  70.9769 138.9199 15.72918105  4108
STARLINK-3632           
1 51784U 22017S   22074.91667824  .00085134  00000+0  60885-3 0  9995
2 51784  53.2191  53.1573 0001506  63.1056 150.0517 15.73046190  4116
STARLINK-3646           
1 51785U 22017T   22075.16667824  .00130940  00000+0  92639-3 0  9992
2 51785  53.2188  51.9255 0001299  50.3769 137.3694 15.73111661  4192
STARLINK-3638           
1 51786U 22017U   22074.91667824  .00012029  00000+0  89991-4 0  9990
2 51786  53.2194  53.1554 0001338  66.8879 147.4293 15.73203514  4156
STARLINK-3619           
1 51787U 22017V   22074.91667824  .00241371  00000+0  16922-2 0  9997
2 51787  53.2188  53.1592 0001414  54.8299 157.0049 15.72964001  4105
STARLINK-3641           
1 51788U 22017W   22074.91667824  .00203204  00000+0  14314-2 0  9994
2 51788  53.2193  53.1510 0001361  66.2939 150.0504 15.72971515  4108
STARLINK-3639           
1 51789U 22017X   22074.91667824  .00256890  00000+0  17989-2 0  9995
2 51789  53.2190  53.1556 0001076  66.2255 147.5657 15.72943869  4112
STARLINK-3631           
1 51790U 22017Y   22075.16667824  .00053704  00000+0  38589-3 0  9994
2 51790  53.2193  51.9144 0001253  64.9373 128.5191 15.73122651  4198
STARLINK-3602           
1 51791U 22017Z   22074.91667824  .00183527  00000+0  12943-2 0  9999
2 51791  53.2189  53.1531 0001354  63.4194 151.5341 15.73007206  4107
STARLINK-3626           
1 51792U 22017AA  22074.91667824  .00085709  00000+0  61287-3 0  9999
2 51792  53.2188  53.1475 0001738  69.1640 149.0833 15.73046795  4158
STARLINK-3633           
1 51793U 22017AB  22075.16667824  .00090886  00000+0  64729-3 0  9994
2 51793  53.2189  51.9165 0001191  52.9854 139.2509 15.73117167  4199
STARLINK-3573           
1 51794U 22017AC  22075.16667824  .00115220  00000+0  81790-3 0  9992
2 51794  53.2195  51.9096 0001196  70.5308 125.4745 15.73092507  4149
STARLINK-3586           
1 51795U 22017AD  22075.16667824  .00107399  00000+0  76296-3 0  9996
2 51795  53.2189  51.9102 0001313  62.9181 132.4554 15.73105816  4140
STARLINK-3630           
1 51796U 22017AE  22074.91667824  .00164610  00000+0  11635-2 0  9993
2 51796  53.2193  53.1406 0001182  65.4624 155.8646 15.73016836  3379
STARLINK-3627           
1 51797U 22017AF  22074.91667824  .00186362  00000+0  13155-2 0  9991
2 51797  53.2197  53.1483 0001361  72.0785 145.5481 15.72976548  3377
STARLINK-3634           
1 51798U 22017AG  22074.91667824  .00175955  00000+0  12427-2 0  9999
2 51798  53.2194  53.1393 0001272  65.5685 156.4801 15.72997972  3373
STARLINK-3637           
1 51799U 22017AH  22074.91667824  .00079586  00000+0  56960-3 0  9994
2 51799  53.2192  53.1425 0001422  65.0809 155.0614 15.73055905  3377
STARLINK-3600           
1 51800U 22017AJ  22074.91667824 -.00030280  00000+0 -21209-3 0  9995
2 51800  53.2195  53.1372 0001305  79.3158 143.9610 15.73201795  3371
STARLINK-3592           
1 51801U 22017AK  22074.91667824  .00037850  00000+0  27396-3 0  9997
2 51801  53.2191  53.1418 0000880  66.0268 154.6585 15.73107937  3374
STARLINK-3557           
1 51802U 22017AL  22074.91667824  .00192512  00000+0  13571-2 0  9994
2 51802  53.2194  53.1348 0001324  78.7378 145.8557 15.72987968  3398
STARLINK-3544           
1 51803U 22017AM  22074.91667824  .00163244  00000+0  11541-2 0  9990
2 51803  53.2192  53.1381 0001352  70.9144 151.7323 15.73016172  3376
STARLINK-3601           
1 51804U 22017AN  22074.91667824  .00231398  00000+0  16260-2 0  9990
2 51804  53.2214  53.1156 0001369  61.1232 174.0422 15.72941051  3381
STARLINK-3605           
1 51805U 22017AP  22074.91667824  .00165147  00000+0  11686-2 0  9996
2 51805  53.2190  53.1354 0001327  65.7133 158.2492 15.72988754  3381
STARLINK-3581           
1 51806U 22017AQ  22074.91667824  .00251362  00000+0  17616-2 0  9991
2 51806  53.2195  53.1296 0001329  68.6485 158.5594 15.72942073  3386
STARLINK-3606           
1 51807U 22017AR  22074.91667824  .00201600  00000+0  14205-2 0  9993
2 51807  53.2190  53.1326 0001128  69.0422 156.2125 15.72970013  3389
STARLINK-3609           
1 51808U 22017AS  22074.91667824  .00252616  00000+0  17693-2 0  9991
2 51808  53.2196  53.1268 0001202  77.7902 150.6886 15.72952615  3383
STARLINK-3607           
1 51809U 22017AT  22075.16667824 -.00038517  00000+0 -27141-3 0  9994
2 51809  53.2192  51.8963 0001131  61.5330 141.0024 15.73189167  4142
STARLINK-3613           
1 51810U 22017AU  22074.91667824  .00153000  00000+0  10846-2 0  9994
2 51810  53.2195  53.1242 0001331  55.2102 174.4943 15.72987563  3381
STARLINK-3569           
1 51811U 22017AV  22074.91667824  .00122961  00000+0  87314-3 0  9992
2 51811  53.2192  53.1278 0001258  77.0696 150.6341 15.73055140  3393
STARLINK-3610           
1 51812U 22017AW  22074.91667824  .00122244  00000+0  86950-3 0  9992
2 51812  53.2194  53.1229 0001320  85.4799 144.9144 15.73018746  3397
STARLINK-3552           
1 51813U 22017AX  22074.91667824  .00171106  00000+0  12095-2 0  9992
2 51813  53.2191  53.1251 0000922  83.1598 145.9800 15.72993575  3390
STARLINK-3599           
1 51814U 22017AY  22074.91667824 -.00026750  00000+0 -18666-3 0  9990
2 51814  53.2198  53.1212 0001260  77.6770 153.8594 15.73215566  3397
STARLINK-3604           
1 51815U 22017AZ  22074.91667824  .00167982  00000+0  11875-2 0  9996
2 51815  53.2190  53.1210 0001137  57.3093 173.7063 15.73002320  3387
STARLINK-3603           
1 51816U 22017BA  22074.91667824  .00233628  00000+0  16403-2 0  9990
2 51816  53.2196  53.1195 0001252  79.6973 152.6035 15.72953748  3381
STARLINK-3596           
1 51817U 22017BB  22075.14422546  .00058968  00000+0  22818-3 0  9997
2 51817  53.2220  50.6888 0006701 276.9021  83.1243 15.86649212  4160
FALCON 9 DEB            
1 51818U 22017BC  22075.17807596  .00245110  34121-4  66698-3 0  9990
2 51818  53.2312  50.1926 0004585 340.1517  19.9333 15.93732036  2949
FALCON 9 DEB            
1 51819U 22017BD  22075.17067629  .00290982  44255-4  73883-3 0  9996
2 51819  53.2282  50.1397 0002513 309.5523  50.5284 15.95002646  2948
FALCON 9 DEB            
1 51820U 22017BE  22075.15763191  .00309517  49403-4  72767-3 0  9998
2 51820  53.2247  50.0448 0006525 298.3769  61.6603 15.96372927  2942
FALCON 9 DEB            
1 51821U 22017BF  22075.15459958  .00302435  47650-4  71053-3 0  9993
2 51821  53.2219  50.0184 0005814 276.4923  83.5445 15.96398299  2945
L-SAR 01B               
1 51822U 22018A   22075.17266382 -.00000708  00000+0 -70542-4 0  9990
2 51822  97.8099  83.8733 0001813  97.0836 263.0571 14.88414154  2556
CZ-4C R/B               
1 51823U 22018B   22074.95284768  .00009374  00000+0  34607-3 0  9991
2 51823  97.8617  84.6516 0132394 342.9674  16.7136 15.20059452  2588
2022-019A               
1 51824U 22019A   22075.16115933  .00005414  00000+0  34819-3 0  9990
2 51824  97.5196 151.6133 0020676 208.3594 206.1956 15.08639252  2575
2022-019B               
1 51825U 22019B   22075.15857900  .00004332  00000+0  27777-3 0  9990
2 51825  97.5190 151.6139 0018766 204.2859 211.9719 15.08886434  2568
2022-019C               
1 51826U 22019C   22075.15603265  .00005570  00000+0  35400-3 0  9991
2 51826  97.5179 151.6136 0018009 205.3224 209.0305 15.09099514  2566
2022-019D               
1 51827U 22019D   22075.22293281  .00004165  00000+0  26549-3 0  9996
2 51827  97.5196 151.6861 0016664 204.5772 217.6005 15.09157069  2578
2022-019E               
1 51828U 22019E   22075.16204970  .00005653  00000+0  35830-3 0  9993
2 51828  97.5201 151.6271 0017419 206.8840 246.5487 15.09204067  2566
2022-019F               
1 51829U 22019F   22075.16019262  .00007780  00000+0  49014-3 0  9994
2 51829  97.5245 151.6368 0016930 206.2461 241.6934 15.09310135  2569
